YAOGAN-43 01D           
1 60461U 24148D   26068.43560480  .00010676  00000+0  37766-3 0  9999
2 60461  35.0010  61.7102 0002556 326.2473  33.8080 15.28369377 87008
STARLINK-36415          
1 67519U 26012AC  26068.08701705  .00035791  00000+0  13051-2 0  9995
2 67519  43.0042 317.4482 0002117 279.6103  80.4510 15.27547014  7675
